{
  "type": "FeatureCollection",
  "features": [
    {
      "type": "Feature",
      "geometry": {
        "type": "MultiPolygon",
        "coordinates": [
          [
            [
              [
                9.736802610476072,
                53.556032168815925
              ],
              [
                9.773438398265174,
                53.55047392582065
              ],
              [
                9.761730053714018,
                53.556726949190335
              ],
              [
                9.736802610476072,
                53.556032168815925
              ]
            ]
          ],
          [
            [
              [
                6.810471849754889,
                53.60258245390135
              ],
              [
                6.767415356889348,
                53.618330809054626
              ],
              [
                6.753440881134742,
                53.618330809054626
              ],
              [
                6.700564486387586,
                53.60651954268967
              ],
              [
                6.658263370589862,
                53.60651954268967
              ],
              [
                6.648065780174338,
                53.60026651931999
              ],
              [
                6.6571303049881365,
                53.58243382304348
              ],
              [
                6.693010715709422,
                53.566917061348335
              ],
              [
                6.714161273608283,
                53.562285192185605
              ],
              [
                6.739088716846229,
                53.57317008471802
              ],
              [
                6.727002683761165,
                53.58405497725043
              ],
              [
                6.750797061397385,
                53.59563465015726
              ],
              [
                6.803295767610633,
                53.59725580436421
              ],
              [
                6.810471849754889,
                53.60258245390135
              ]
            ]
          ],
          [
            [
              [
                6.823313259907771,
                53.64774317823796
              ],
              [
                6.823313259907771,
                53.64704839786355
              ],
              [
                6.822557882839954,
                53.64635361748914
              ],
              [
                6.8214248172382295,
                53.64473246328218
              ],
              [
                6.820669440170413,
                53.64311130907523
              ],
              [
                6.84710763754399,
                53.64241652870082
              ],
              [
                6.8437084407388165,
                53.64635361748914
              ],
              [
                6.8259570796451285,
                53.65005911281932
              ],
              [
                6.824446325509495,
                53.64936433244492
              ],
              [
                6.824446325509495,
                53.6486695520705
              ],
              [
                6.823313259907771,
                53.64774317823796
              ]
            ],
            [
              [
                6.823313259907771,
                53.64774317823796
              ],
              [
                6.824446325509495,
                53.6486695520705
              ],
              [
                6.824446325509495,
                53.64936433244492
              ],
              [
                6.8259570796451285,
                53.65005911281932
              ],
              [
                6.820669440170413,
                53.64311130907523
              ],
              [
                6.8214248172382295,
                53.64473246328218
              ],
              [
                6.822557882839954,
                53.64635361748914
              ],
              [
                6.823313259907771,
                53.64704839786355
              ],
              [
                6.823313259907771,
                53.64774317823796
              ]
            ]
          ],
          [
            [
              [
                6.902250163494596,
                53.63616350533113
              ],
              [
                6.90791549150322,
                53.65168026702628
              ],
              [
                6.864481310103771,
                53.64473246328218
              ],
              [
                6.876567343188835,
                53.627594547380085
              ],
              [
                6.898473278155514,
                53.62991048196145
              ],
              [
                6.902250163494596,
                53.63616350533113
              ]
            ]
          ],
          [
            [
              [
                6.857305227959514,
                53.66488109414006
              ],
              [
                6.875811966121018,
                53.66187037918428
              ],
              [
                6.911314688308394,
                53.666502248347015
              ],
              [
                7.066544675744689,
                53.67970307546079
              ],
              [
                7.042750298108468,
                53.68433494462352
              ],
              [
                6.987607772157863,
                53.681324229667744
              ],
              [
                6.861082113298596,
                53.669744556760925
              ],
              [
                6.857305227959514,
                53.66488109414006
              ]
            ]
          ],
          [
            [
              [
                7.3418796169638085,
                53.72092671100908
              ],
              [
                7.316952173725864,
                53.722547865216036
              ],
              [
                7.284093271275845,
                53.71791599605331
              ],
              [
                7.247457483486745,
                53.7172212156789
              ],
              [
                7.196847219943038,
                53.72185308484163
              ],
              [
                7.167387514298193,
                53.71791599605331
              ],
              [
                7.137927808653349,
                53.70865225772785
              ],
              [
                7.150013841738414,
                53.69776736519543
              ],
              [
                7.196847219943038,
                53.69846214556984
              ],
              [
                7.2179977778419,
                53.70309401473257
              ],
              [
                7.267474975783882,
                53.70309401473257
              ],
              [
                7.33281509215001,
                53.71397890726499
              ],
              [
                7.3418796169638085,
                53.72092671100908
              ]
            ]
          ],
          [
            [
              [
                8.149377702459665,
                53.71166297268362
              ],
              [
                8.162974489680362,
                53.729495668960126
              ],
              [
                8.134647849637243,
                53.72416901942299
              ],
              [
                8.149377702459665,
                53.71166297268362
              ]
            ]
          ],
          [
            [
              [
                7.397777519982231,
                53.734359131580995
              ],
              [
                7.36114173219313,
                53.72880088858572
              ],
              [
                7.387579929566708,
                53.72023193063467
              ],
              [
                7.42610416002535,
                53.72185308484163
              ],
              [
                7.427237225627075,
                53.72880088858572
              ],
              [
                7.397777519982231,
                53.734359131580995
              ]
            ]
          ],
          [
            [
              [
                7.583222590131186,
                53.75682369702023
              ],
              [
                7.490311210789754,
                53.75612891664582
              ],
              [
                7.4695383414247996,
                53.745938804487814
              ],
              [
                7.4721821611621575,
                53.722547865216036
              ],
              [
                7.497864981467919,
                53.72880088858572
              ],
              [
                7.513350211358158,
                53.74362286990645
              ],
              [
                7.542054539935186,
                53.74292808953204
              ],
              [
                7.568492737308763,
                53.74825473906918
              ],
              [
                7.619858377920287,
                53.746633584862224
              ],
              [
                7.604373148030048,
                53.75612891664582
              ],
              [
                7.583222590131186,
                53.75682369702023
              ]
            ]
          ],
          [
            [
              [
                7.711636691659994,
                53.77789870171065
              ],
              [
                7.685953871354232,
                53.77720392133624
              ],
              [
                7.6685801987944515,
                53.76307672038992
              ],
              [
                7.683310051616874,
                53.75381298206446
              ],
              [
                7.698795281507112,
                53.76307672038992
              ],
              [
                7.742984839974379,
                53.76145556618296
              ],
              [
                7.783397513102562,
                53.76608743534569
              ],
              [
                7.777732185093939,
                53.77789870171065
              ],
              [
                7.711636691659994,
                53.77789870171065
              ]
            ]
          ],
          [
            [
              [
                8.011899076117059,
                53.78484650545474
              ],
              [
                7.991503895286012,
                53.76770858955264
              ],
              [
                8.008877567845792,
                53.75057067365054
              ],
              [
                8.030028125744655,
                53.76145556618296
              ],
              [
                8.011899076117059,
                53.78484650545474
              ]
            ]
          ],
          [
            [
              [
                7.895948696207223,
                53.79341546340579
              ],
              [
                7.91181161463137,
                53.780214636292015
              ],
              [
                7.937494434937132,
                53.788088813868654
              ],
              [
                7.895948696207223,
                53.79341546340579
              ]
            ]
          ],
          [
            [
              [
                8.373347003067261,
                53.83324953820526
              ],
              [
                8.375990822804619,
                53.836260253161036
              ],
              [
                8.362394035583922,
                53.83463909895408
              ],
              [
                8.373347003067261,
                53.83324953820526
              ]
            ]
          ],
          [
            [
              [
                8.702691404635262,
                53.87748388870932
              ],
              [
                8.683429289405941,
                53.89161108965565
              ],
              [
                8.653969583761096,
                53.88836878124174
              ],
              [
                8.617333795971996,
                53.88211575787205
              ],
              [
                8.564079712690932,
                53.83788140736799
              ],
              [
                8.553126745207592,
                53.82375420642167
              ],
              [
                8.541040712122527,
                53.8043003559382
              ],
              [
                8.542173777724253,
                53.791794309198835
              ],
              [
                8.519134777155848,
                53.75450776243886
              ],
              [
                8.520267842757574,
                53.745244024113404
              ],
              [
                8.491563514180546,
                53.71166297268362
              ],
              [
                8.483254366434565,
                53.69452505678152
              ],
              [
                8.483254366434565,
                53.666502248347015
              ],
              [
                8.483254366434565,
                53.6556173558146
              ],
              [
                8.510825629409867,
                53.619720369803446
              ],
              [
                8.521023219825391,
                53.60651954268967
              ],
              [
                8.535753072647813,
                53.60721432306408
              ],
              [
                8.59240635273405,
                53.59331871557589
              ],
              [
                8.625642943717978,
                53.60582476231526
              ],
              [
                8.646793501616841,
                53.6035088277339
              ],
              [
                8.623754501048436,
                53.5768755800482
              ],
              [
                8.630930583192693,
                53.556032168815925
              ],
              [
                8.645660436015115,
                53.55441101460897
              ],
              [
                8.639239730938675,
                53.53333600991855
              ],
              [
                8.650570386955923,
                53.510871444479314
              ],
              [
                8.630930583192693,
                53.493733528577216
              ],
              [
                8.606380828488657,
                53.48423819679362
              ],
              [
                8.570500417767372,
                53.48817528558194
              ],
              [
                8.528199301969646,
                53.4803011080053
              ],
              [
                8.505537989935151,
                53.47103736967984
              ],
              [
                8.49269657978227,
                53.4726585238868
              ],
              [
                8.50364954726561,
                53.49280715474467
              ],
              [
                8.517246334486307,
                53.502997266902675
              ],
              [
                8.515357891816766,
                53.507629136065404
              ],
              [
                8.55577056494495,
                53.52407227159309
              ],
              [
                8.552371368139775,
                53.53657831833246
              ],
              [
                8.51007025234205,
                53.552095080027605
              ],
              [
                8.46701375947651,
                53.552789860402015
              ],
              [
                8.43642098822994,
                53.562285192185605
              ],
              [
                8.399029823373024,
                53.568306622097154
              ],
              [
                8.365793232389096,
                53.59030800062012
              ],
              [
                8.356728707575298,
                53.59957173894558
              ],
              [
                8.348419559829317,
                53.608835477271036
              ],
              [
                8.311783772040215,
                53.617404435222085
              ],
              [
                8.277791803988471,
                53.612077785684946
              ],
              [
                8.275147984251115,
                53.60489838848272
              ],
              [
                8.249465163945352,
                53.59030800062012
              ],
              [
                8.240022950597647,
                53.567611841722744
              ],
              [
                8.230958425783848,
                53.52013518280477
              ],
              [
                8.251353606614895,
                53.51944040243036
              ],
              [
                8.272504164513757,
                53.51944040243036
              ],
              [
                8.297053919217793,
                53.52546183234191
              ],
              [
                8.315560657379297,
                53.514576939809494
              ],
              [
                8.314427591777573,
                53.4631631921032
              ],
              [
                8.313672214709756,
                53.45621538835911
              ],
              [
                8.296298542149977,
                53.443014561245334
              ],
              [
                8.297053919217793,
                53.42981373413156
              ],
              [
                8.264195016767776,
                53.403412079904
              ],
              [
                8.253997426352251,
                53.39947499111568
              ],
              [
                8.20905249081717,
                53.40179092569704
              ],
              [
                8.196966457732104,
                53.40804394906672
              ],
              [
                8.196211080664288,
                53.40873872944114
              ],
              [
                8.196966457732104,
                53.41267581822946
              ],
              [
                8.153909964866564,
                53.447646430408064
              ],
              [
                8.141823931781499,
                53.45227829957079
              ],
              [
                8.09423517650906,
                53.447646430408064
              ],
              [
                8.06779697913548,
                53.4726585238868
              ],
              [
                8.06137627405904,
                53.49211237437026
              ],
              [
                8.062131651126856,
                53.49674424353299
              ],
              [
                8.064020093796398,
                53.505313201484036
              ],
              [
                8.079505323686636,
                53.502302486528265
              ],
              [
                8.10707658666194,
                53.503692047277084
              ],
              [
                8.156553784603922,
                53.51550331364204
              ],
              [
                8.162974489680362,
                53.52082996317918
              ],
              [
                8.169395194756802,
                53.53657831833246
              ],
              [
                8.169395194756802,
                53.54422090245096
              ],
              [
                8.150133079527482,
                53.567611841722744
              ],
              [
                8.130115587230343,
                53.58405497725043
              ],
              [
                8.114630357340104,
                53.61439372026631
              ],
              [
                8.08970291410216,
                53.63778465953809
              ],
              [
                8.087814471432619,
                53.64403768290778
              ],
              [
                8.044757978567077,
                53.64311130907523
              ],
              [
                8.028139683075114,
                53.66187037918428
              ],
              [
                8.021718977998674,
                53.68757725303743
              ],
              [
                8.021718977998674,
                53.68827203341184
              ],
              [
                8.021718977998674,
                53.68757725303743
              ],
              [
                8.021718977998674,
                53.68827203341184
              ],
              [
                8.03116119134638,
                53.70540994931394
              ],
              [
                8.015298272922234,
                53.71096819230921
              ],
              [
                7.965065697912435,
                53.71629484184635
              ],
              [
                7.895948696207223,
                53.7172212156789
              ],
              [
                7.8328747110445445,
                53.71096819230921
              ],
              [
                7.810591087543957,
                53.71096819230921
              ],
              [
                7.79246203791636,
                53.71004181847667
              ],
              [
                7.7444955941100115,
                53.7000832997768
              ],
              [
                7.690486133761131,
                53.70077808015121
              ],
              [
                7.628922902734085,
                53.68757725303743
              ],
              [
                7.608905410436947,
                53.68665087920488
              ],
              [
                7.590398672275443,
                53.67970307546079
              ],
              [
                7.574913442385204,
                53.681324229667744
              ],
              [
                7.5518744418168,
                53.674376425923654
              ],
              [
                7.516371719629424,
                53.672060491342286
              ],
              [
                7.474825980899515,
                53.68364016424911
              ],
              [
                7.374738519413827,
                53.6829453838747
              ],
              [
                7.359253289523588,
                53.685956098830474
              ],
              [
                7.316952173725864,
                53.68364016424911
              ],
              [
                7.261054270707442,
                53.672755271716696
              ],
              [
                7.234616073333863,
                53.66488109414006
              ],
              [
                7.183250432722341,
                53.64079537449386
              ],
              [
                7.173808219374634,
                53.62991048196145
              ],
              [
                7.158322989484395,
                53.62597339317313
              ],
              [
                7.158322989484395,
                53.62527861279872
              ],
              [
                7.154546104145313,
                53.622036304384814
              ],
              [
                7.137172431585533,
                53.60420360810831
              ],
              [
                7.111489611279771,
                53.5940134959503
              ],
              [
                7.090339053380909,
                53.57317008471802
              ],
              [
                7.121687201695295,
                53.544915682825376
              ],
              [
                7.132640169178634,
                53.54028381366264
              ],
              [
                7.124331021432652,
                53.52939892113023
              ],
              [
                7.100536643796432,
                53.52638820617446
              ],
              [
                7.05105944585445,
                53.5349571641255
              ],
              [
                7.034441150362486,
                53.53403079029296
              ],
              [
                7.0499263802527254,
                53.507629136065404
              ],
              [
                7.025376625548688,
                53.48354341641921
              ],
              [
                7.023488182879147,
                53.46084725752184
              ],
              [
                7.011402149794083,
                53.43050851450596
              ],
              [
                7.013290592463624,
                53.41035988364809
              ],
              [
                6.999693805242927,
                53.37376811726253
              ],
              [
                6.999693805242927,
                53.3589461359418
              ],
              [
                7.024243559946964,
                53.336249977044424
              ],
              [
                7.058235527998707,
                53.334860416295605
              ],
              [
                7.205911744756836,
                53.33393404246306
              ],
              [
                7.248968237622377,
                53.32999695367474
              ],
              [
                7.2463244178850195,
                53.320038434974876
              ],
              [
                7.245569040817203,
                53.31911206114233
              ],
              [
                7.244435975215478,
                53.31841728076792
              ],
              [
                7.191181891934414,
                53.31772250039351
              ],
              [
                7.2168647122401755,
                53.213968631148376
              ],
              [
                7.2179977778419,
                53.19937824328578
              ],
              [
                7.190426514866597,
                53.161860103067674
              ],
              [
                7.189671137798781,
                53.14796449557949
              ],
              [
                7.178340481781533,
                53.13777438342148
              ],
              [
                7.183250432722341,
                53.12133124789379
              ],
              [
                7.202512547951661,
                53.11368866377529
              ],
              [
                7.199491039680396,
                53.08080239271992
              ],
              [
                7.212332449833276,
                53.01549303752543
              ],
              [
                7.209688630095918,
                52.99997627583029
              ],
              [
                7.181361990052799,
                52.9416147243799
              ],
              [
                7.105068906203331,
                52.864494102820466
              ],
              [
                7.087695233643551,
                52.84967212149973
              ],
              [
                7.092982873118267,
                52.83786085513477
              ],
              [
                7.072210003753312,
                52.810764420532806
              ],
              [
                7.064656233075147,
                52.72970671018505
              ],
              [
                7.0544586426596245,
                52.644017130674555
              ],
              [
                7.041617232506743,
                52.632437457767736
              ],
              [
                7.006114510319367,
                52.63869048113742
              ],
              [
                6.976654804674523,
                52.646333065255924
              ],
              [
                6.940774393953239,
                52.637764107304875
              ],
              [
                6.891297196011257,
                52.651891308251194
              ],
              [
                6.822557882839954,
                52.647954219462875
              ],
              [
                6.777612947304871,
                52.651891308251194
              ],
              [
                6.741732536583587,
                52.645638284881514
              ],
              [
                6.714161273608283,
                52.62687921477246
              ],
              [
                6.727002683761165,
                52.61437316803309
              ],
              [
                6.7186935360151825,
                52.588666294179944
              ],
              [
                6.75835083207555,
                52.56782288294767
              ],
              [
                6.750797061397385,
                52.55925392499661
              ],
              [
                6.726247306693348,
                52.5629594203268
              ],
              [
                6.716049716277825,
                52.5483690324642
              ],
              [
                6.6813023711582655,
                52.55369568200134
              ],
              [
                6.705096748794485,
                52.52034622402969
              ],
              [
                6.697542978116321,
                52.48607039222549
              ],
              [
                6.754573946736468,
                52.463374233328125
              ],
              [
                6.774591439033605,
                52.4594371445398
              ],
              [
                6.854661408222156,
                52.4594371445398
              ],
              [
                6.861837490366413,
                52.4517945604213
              ],
              [
                6.9419074595549635,
                52.43535142489361
              ],
              [
                6.962680328919918,
                52.44461516321907
              ],
              [
                6.977410181742339,
                52.465690167909486
              ],
              [
                6.987607772157863,
                52.469627256697805
              ],
              [
                7.006114510319367,
                52.44392038284466
              ],
              [
                7.0106467727262665,
                52.42909840152392
              ],
              [
                7.022355117277423,
                52.42284537815424
              ],
              [
                7.036329593032028,
                52.40269674729637
              ],
              [
                7.0544586426596245,
                52.401075593089416
              ],
              [
                7.072210003753312,
                52.3730527846549
              ],
              [
                7.072210003753312,
                52.351977779964486
              ],
              [
                7.056347085329166,
                52.33877695285071
              ],
              [
                7.046527183447551,
                52.31631238741147
              ],
              [
                7.02726506821823,
                52.291995074307145
              ],
              [
                7.02726506821823,
                52.27717309298641
              ],
              [
                7.042750298108468,
                52.25632968175413
              ],
              [
                7.065789298676872,
                52.241507700433395
              ],
              [
                7.099403578194707,
                52.243128854640354
              ],
              [
                7.121687201695295,
                52.26096155091686
              ],
              [
                7.155679169747037,
                52.266288200454
              ],
              [
                7.2179977778419,
                52.26397226587263
              ],
              [
                7.297690058496542,
                52.26397226587263
              ],
              [
                7.316952173725864,
                52.28041540140032
              ],
              [
                7.36114173219313,
                52.28828957897696
              ],
              [
                7.386824552498892,
                52.30913299020924
              ],
              [
                7.427237225627075,
                52.31376485937197
              ],
              [
                7.438190193110414,
                52.33345030331357
              ],
              [
                7.4793582433064145,
                52.34734591080176
              ],
              [
                7.529968506850121,
                52.37004206969913
              ],
              [
                7.553762884486341,
                52.36842091549217
              ],
              [
                7.574158065317388,
                52.38092696223154
              ],
              [
                7.583222590131186,
                52.40339152767078
              ],
              [
                7.6024847053605065,
                52.42145581740542
              ],
              [
                7.5730249997156625,
                52.42979318189833
              ],
              [
                7.5775572621225615,
                52.44693109780043
              ],
              [
                7.590398672275443,
                52.463374233328125
              ],
              [
                7.607772344835222,
                52.474259125860534
              ],
              [
                7.667447133192727,
                52.45642642958403
              ],
              [
                7.68859769109159,
                52.454110495002666
              ],
              [
                7.7025721668461955,
                52.4346566445192
              ],
              [
                7.713525134329535,
                52.401075593089416
              ],
              [
                7.723722724745057,
                52.40038081271501
              ],
              [
                7.805303448069242,
                52.371431630447944
              ],
              [
                7.8426946129261585,
                52.36911569586658
              ],
              [
                7.891416433800324,
                52.38092696223154
              ],
              [
                7.921631516512985,
                52.36517860707826
              ],
              [
                7.942782074411847,
                52.359157177166715
              ],
              [
                7.948447402420471,
                52.33483986406239
              ],
              [
                7.965065697912435,
                52.32488134536252
              ],
              [
                7.986971632879113,
                52.303806340672104
              ],
              [
                7.949202779488288,
                52.306122275253465
              ],
              [
                7.931829106928507,
                52.301490406090736
              ],
              [
                7.931073729860691,
                52.28967913972578
              ],
              [
                7.956756550166453,
                52.27254122382368
              ],
              [
                7.92465302478425,
                52.26165633129127
              ],
              [
                7.928052221589425,
                52.22969643406844
              ],
              [
                7.902369401283664,
                52.20398956021529
              ],
              [
                7.908034729292288,
                52.1900939527271
              ],
              [
                7.9337175495980485,
                52.176893125613326
              ],
              [
                7.955623484564728,
                52.178282686362145
              ],
              [
                7.974130222726233,
                52.17133488261805
              ],
              [
                8.00698912517625,
                52.17596675178078
              ],
              [
                8.025495863337756,
                52.16369229849955
              ],
              [
                8.003589928371078,
                52.15419696671595
              ],
              [
                8.008122190777975,
                52.11528926574903
              ],
              [
                7.971486402988875,
                52.11598404612344
              ],
              [
                7.958644992835994,
                52.10509915359102
              ],
              [
                7.9061462866227465,
                52.0935194806842
              ],
              [
                7.884995728723884,
                52.08332936852619
              ],
              [
                7.920876139445168,
                52.05762249467305
              ],
              [
                7.917099254106086,
                52.05136947130337
              ],
              [
                7.98130630487049,
                52.03585270960822
              ],
              [
                7.993392337955553,
                52.04997991055455
              ],
              [
                8.036448830821096,
                52.063875518042735
              ],
              [
                8.066663913533755,
                52.067812606831055
              ],
              [
                8.092346733839518,
                52.063180737668326
              ],
              [
                8.0961236191786,
                52.05692771429864
              ],
              [
                8.150133079527482,
                52.074760410575145
              ],
              [
                8.174305145697609,
                52.071749695619374
              ],
              [
                8.195078015062563,
                52.074065630200735
              ],
              [
                8.201498720139003,
                52.08796123768892
              ],
              [
                8.220760835368324,
                52.10602552742357
              ],
              [
                8.24568827860627,
                52.12154228911871
              ],
              [
                8.262306574098233,
                52.120847508744305
              ],
              [
                8.266838836505134,
                52.132427181651124
              ],
              [
                8.286100951734454,
                52.132427181651124
              ],
              [
                8.300830804556876,
                52.120847508744305
              ],
              [
                8.343131920354601,
                52.123858223700076
              ],
              [
                8.373347003067261,
                52.10996261621189
              ],
              [
                8.392609118296583,
                52.10834146200493
              ],
              [
                8.41073816792418,
                52.11528926574903
              ],
              [
                8.40431746284774,
                52.13011124706976
              ],
              [
                8.415648118864986,
                52.13937498539522
              ],
              [
                8.453039283721903,
                52.1551233405485
              ],
              [
                8.463236874137426,
                52.15350218634154
              ],
              [
                8.493451956850087,
                52.16670301345532
              ],
              [
                8.508181809672509,
                52.188472798520145
              ],
              [
                8.463236874137426,
                52.19472582188983
              ],
              [
                8.442086316238564,
                52.21417967237329
              ],
              [
                8.461348431467886,
                52.22900165369403
              ],
              [
                8.458704611730528,
                52.257719242502944
              ],
              [
                8.465880693874784,
                52.26790935466095
              ],
              [
                8.458704611730528,
                52.294311008888506
              ],
              [
                8.469657579213868,
                52.31307007899756
              ],
              [
                8.453039283721903,
                52.33020799489966
              ],
              [
                8.435665611162124,
                52.3628626724969
              ],
              [
                8.3842999705506,
                52.38625361176868
              ],
              [
                8.363904789719555,
                52.38949592018259
              ],
              [
                8.313672214709756,
                52.405707462252145
              ],
              [
                8.321981362455737,
                52.42608768656815
              ],
              [
                8.308006886701133,
                52.43697257910056
              ],
              [
                8.297053919217793,
                52.45642642958403
              ],
              [
                8.345775740091959,
                52.45248934079571
              ],
              [
                8.363904789719555,
                52.44392038284466
              ],
              [
                8.386188413220143,
                52.44461516321907
              ],
              [
                8.400918266042565,
                52.45086818658875
              ],
              [
                8.418291938602344,
                52.44623631742602
              ],
              [
                8.454172349323628,
                52.46105829874676
              ],
              [
                8.46059305440007,
                52.48908110718127
              ],
              [
                8.508937186740326,
                52.51478798103442
              ],
              [
                8.51649095741849,
                52.50922973803914
              ],
              [
                8.556903630546675,
                52.49927121933927
              ],
              [
                8.652081141091555,
                52.531231116562104
              ],
              [
                8.671343256320878,
                52.51710391561578
              ],
              [
                8.698159142228363,
                52.50922973803914
              ],
              [
                8.702691404635262,
                52.50066078008809
              ],
              [
                8.69891451929618,
                52.48745995297431
              ],
              [
                8.709112109711704,
                52.477501434274444
              ],
              [
                8.711000552381243,
                52.463374233328125
              ],
              [
                8.703446781703079,
                52.44160444826329
              ],
              [
                8.718176634525502,
                52.43071955573088
              ],
              [
                8.704579847304803,
                52.412886859454375
              ],
              [
                8.745747897500804,
                52.38787476597564
              ],
              [
                8.786160570628986,
                52.39875965850805
              ],
              [
                8.85489988380029,
                52.38949592018259
              ],
              [
                8.888891851852033,
                52.39574894355228
              ],
              [
                8.890780294521575,
                52.40339152767078
              ],
              [
                8.933836787387117,
                52.401075593089416
              ],
              [
                8.94592282047218,
                52.413581639828784
              ],
              [
                8.978026345854381,
                52.42678246694256
              ],
              [
                8.988979313337722,
                52.4517945604213
              ],
              [
                9.012018313906125,
                52.45712120995844
              ],
              [
                9.022215904321648,
                52.4765750604419
              ],
              [
                9.038456511279705,
                52.47981736885581
              ],
              [
                9.050542544364768,
                52.49695528475791
              ],
              [
                9.099264365238934,
                52.49765006513232
              ],
              [
                9.112105775391814,
                52.48607039222549
              ],
              [
                9.132123267688952,
                52.48352286418599
              ],
              [
                9.136655530095851,
                52.475880280067486
              ],
              [
                9.102663562044107,
                52.45712120995844
              ],
              [
                9.094354414298126,
                52.44322560247025
              ],
              [
                9.110217332722273,
                52.43535142489361
              ],
              [
                9.112105775391814,
                52.420529443572875
              ],
              [
                9.124947185544695,
                52.411960485621826
              ],
              [
                9.11739341486653,
                52.3971385043011
              ],
              [
                9.100019742306749,
                52.38856954635005
              ],
              [
                9.09813129963721,
                52.371431630447944
              ],
              [
                9.083401446814786,
                52.355220088378395
              ],
              [
                9.057718626509025,
                52.33947173322512
              ],
              [
                9.027503543796364,
                52.3457247565948
              ],
              [
                9.019194396050382,
                52.33113436873221
              ],
              [
                8.99804383815152,
                52.32627090611134
              ],
              [
                8.98520242799864,
                52.2936162285141
              ],
              [
                8.988223936269906,
                52.287363205144416
              ],
              [
                8.96329649303196,
                52.27879424719337
              ],
              [
                8.9742494605153,
                52.26258270512381
              ],
              [
                9.006352985897502,
                52.25308737334022
              ],
              [
                9.031280429135446,
                52.250076658384444
              ],
              [
                9.076980741738346,
                52.2320123686498
              ],
              [
                9.051297921432585,
                52.22043269574298
              ],
              [
                9.04601028195787,
                52.21116895741752
              ],
              [
                9.044877216356145,
                52.183840929357416
              ],
              [
                9.021082838719924,
                52.183840929357416
              ],
              [
                8.986335493600365,
                52.19472582188983
              ],
              [
                9.008241428567043,
                52.180598620943506
              ],
              [
                9.018439018982566,
                52.132427181651124
              ],
              [
                9.055830183839483,
                52.14887031717881
              ],
              [
                9.085289889484327,
                52.13705905081385
              ],
              [
                9.107573512984915,
                52.132427181651124
              ],
              [
                9.115504972196987,
                52.13868020502081
              ],
              [
                9.142320858104474,
                52.135669490065034
              ],
              [
                9.157050710926896,
                52.125479377907034
              ],
              [
                9.155917645325172,
                52.11459448537462
              ],
              [
                9.135900153028034,
                52.10602552742357
              ],
              [
                9.155917645325172,
                52.09815134984693
              ],
              [
                9.188021170707374,
                52.071749695619374
              ],
              [
                9.176312826156218,
                52.06086480308696
              ],
              [
                9.173291317884953,
                52.03978979839654
              ],
              [
                9.19746338405508,
                52.011766989962034
              ],
              [
                9.178956645893576,
                52.002503251636575
              ],
              [
                9.183488908300475,
                51.99069198527161
              ],
              [
                9.176312826156218,
                51.98050187311361
              ],
              [
                9.185377350970017,
                51.965679891792874
              ],
              [
                9.206527908868878,
                51.9626691768371
              ],
              [
                9.2167254992844,
                51.97355406936951
              ],
              [
                9.258648926548219,
                51.97749115815783
              ],
              [
                9.274511844972364,
                51.97355406936951
              ],
              [
                9.271490336701099,
                51.93233043382123
              ],
              [
                9.294529337269502,
                51.91982438708186
              ],
              [
                9.309259190091925,
                51.92306669549577
              ],
              [
                9.332298190660328,
                51.91750845250049
              ],
              [
                9.345139600813209,
                51.896433447810075
              ],
              [
                9.335697387465503,
                51.85590459263619
              ],
              [
                9.322855977312622,
                51.85520981226178
              ],
              [
                9.334942010397686,
                51.85358865805483
              ],
              [
                9.368178601381613,
                51.86447355058724
              ],
              [
                9.41010202864543,
                51.85683096646874
              ],
              [
                9.437673291620733,
                51.85590459263619
              ],
              [
                9.433141029213834,
                51.841314204773596
              ],
              [
                9.440317111358091,
                51.82487106924591
              ],
              [
                9.42747570120521,
                51.8139861767135
              ],
              [
                9.436917914552916,
                51.7968482608114
              ],
              [
                9.42936414387475,
                51.78503699444644
              ],
              [
                9.409346651577614,
                51.77114138695825
              ],
              [
                9.407458208908071,
                51.76326720938161
              ],
              [
                9.37535468352587,
                51.74381335889815
              ],
              [
                9.394616798755191,
                51.732233685991325
              ],
              [
                9.387440716610934,
                51.722738354207735
              ],
              [
                9.400282126763814,
                51.70652681213818
              ],
              [
                9.38630765100921,
                51.68938889623608
              ],
              [
                9.395372175823008,
                51.672945760708394
              ],
              [
                9.377998503263228,
                51.664376802757346
              ],
              [
                9.374599306458054,
                51.64955482143661
              ],
              [
                9.38630765100921,
                51.64584932610643
              ],
              [
                9.417655799323594,
                51.64723888685525
              ],
              [
                9.440317111358091,
                51.65048119526916
              ],
              [
                9.495459637308695,
                51.65742899901325
              ],
              [
                9.496592702910421,
                51.63102734478569
              ],
              [
                9.52491934295354,
                51.62616388216483
              ],
              [
                9.544181458182862,
                51.64029108311115
              ],
              [
                9.564198950479998,
                51.62546910179042
              ],
              [
                9.609143886015081,
                51.62940619057874
              ],
              [
                9.636715148990385,
                51.623153167209054
              ],
              [
                9.63784821459211,
                51.609025966262735
              ],
              [
                9.660887215160514,
                51.59281442419318
              ],
              [
                9.68543696986455,
                51.58192953166077
              ],
              [
                9.672595559711668,
                51.56872870454699
              ],
              [
                9.645024296736366,
                51.58192953166077
              ],
              [
                9.625006804439229,
                51.57336057370972
              ],
              [
                9.648045805007632,
                51.552285569019304
              ],
              [
                9.625762181507046,
                51.548348480230985
              ],
              [
                9.609143886015081,
                51.52194682600343
              ],
              [
                9.585349508378862,
                51.51870451758951
              ],
              [
                9.608388508947264,
                51.49230286336196
              ],
              [
                9.642380476999008,
                51.46497483530186
              ],
              [
                9.629539066846128,
                51.45802703155776
              ],
              [
                9.627650624176587,
                51.444131424069575
              ],
              [
                9.643135854066825,
                51.41842455021643
              ],
              [
                9.625006804439229,
                51.40591850347706
              ],
              [
                9.612165394286347,
                51.40753965768401
              ],
              [
                9.596680164396108,
                51.39804432590042
              ],
              [
                9.578928803302421,
                51.40198141468874
              ],
              [
                9.564198950479998,
                51.388085807200554
              ],
              [
                9.5596666880731,
                51.375579760461186
              ],
              [
                9.57704036063288,
                51.3693267370915
              ],
              [
                9.565332016081724,
                51.36075777914045
              ],
              [
                9.549846786191486,
                51.36145255951486
              ],
              [
                9.54871372058976,
                51.3591366249335
              ],
              [
                9.557022868335743,
                51.35149404081499
              ],
              [
                9.567975835819082,
                51.33968277445003
              ],
              [
                9.580061868904146,
                51.3419987090314
              ],
              [
                9.604611623608182,
                51.325787166961845
              ],
              [
                9.63331595218521,
                51.326481947336255
              ],
              [
                9.64615736233809,
                51.316291835178255
              ],
              [
                9.708475970432954,
                51.30378578843889
              ],
              [
                9.732270348069173,
                51.29521683048783
              ],
              [
                9.768150758790458,
                51.3070280968528
              ],
              [
                9.775326840934715,
                51.324860793129304
              ],
              [
                9.767017693188734,
                51.331808596873394
              ],
              [
                9.745111758222055,
                51.318607769759616
              ],
              [
                9.720562003518019,
                51.34825173240108
              ],
              [
                9.702055265356513,
                51.36075777914045
              ],
              [
                9.723205823255375,
                51.37094789129846
              ],
              [
                9.738691053145615,
                51.3693267370915
              ],
              [
                9.756064725705395,
                51.382527564205276
              ],
              [
                9.783635988680697,
                51.38947536794937
              ],
              [
                9.802142726842202,
                51.38947536794937
              ],
              [
                9.79383357909622,
                51.40753965768401
              ],
              [
                9.816872579664624,
                51.41055037263979
              ],
              [
                9.838778514631302,
                51.40267619506315
              ],
              [
                9.83953389169912,
                51.383222344579686
              ],
              [
                9.859929072530164,
                51.39341245673769
              ],
              [
                9.850486859182459,
                51.40128663431433
              ],
              [
                9.86521671200488,
                51.41448746142811
              ],
              [
                9.881835007496843,
                51.40591850347706
              ],
              [
                9.90223018832789,
                51.41842455021643
              ],
              [
                9.909406270472147,
                51.40522372310265
              ],
              [
                9.931312205438825,
                51.39271767636328
              ],
              [
                9.928668385701467,
                51.375579760461186
              ],
              [
                9.942265172922166,
                51.37859047541696
              ],
              [
                9.966437239092294,
                51.395728391319054
              ],
              [
                9.987587796991157,
                51.39804432590042
              ],
              [
                10.005716846618753,
                51.40823443805843
              ],
              [
                10.011382174627377,
                51.4207404847978
              ],
              [
                10.037820372000954,
                51.41981411096525
              ],
              [
                10.060859372569357,
                51.433246531537165
              ],
              [
                10.091074455282019,
                51.435562466118526
              ],
              [
                10.11675727558778,
                51.430004223123255
              ],
              [
                10.148105423902166,
                51.44644735865094
              ],
              [
                10.174543621275744,
                51.44644735865094
              ],
              [
                10.187385031428626,
                51.47840725587377
              ],
              [
                10.202114884251046,
                51.48697621382482
              ],
              [
                10.235351475234975,
                51.47354379325291
              ],
              [
                10.245171377116588,
                51.48211275120396
              ],
              [
                10.286717115846496,
                51.494618797943325
              ],
              [
                10.308623050813175,
                51.51499902225933
              ],
              [
                10.342615018864919,
                51.51963089142206
              ],
              [
                10.347902658339635,
                51.53213693816143
              ],
              [
                10.367164773568955,
                51.543021830693846
              ],
              [
                10.365654019433322,
                51.55622265780762
              ],
              [
                10.378495429586202,
                51.562475681177304
              ],
              [
                10.377362363984478,
                51.58887733540486
              ],
              [
                10.408710512298864,
                51.5865614008235
              ],
              [
                10.428728004596001,
                51.59281442419318
              ],
              [
                10.45101162809659,
                51.58424546624213
              ],
              [
                10.488402792953506,
                51.57498172791667
              ],
              [
                10.518617875666166,
                51.553906723226255
              ],
              [
                10.534480794090314,
                51.559233372763394
              ],
              [
                10.560163614396075,
                51.55691743818203
              ],
              [
                10.612284632075415,
                51.5796135970794
              ],
              [
                10.627014484897838,
                51.56780233071444
              ],
              [
                10.656474190542681,
                51.558538592388985
              ],
              [
                10.666294092424296,
                51.57799244287245
              ],
              [
                10.637967452381176,
                51.58494024661654
              ],
              [
                10.633435189974279,
                51.604394097100005
              ],
              [
                10.646276600127159,
                51.62245838683465
              ],
              [
                10.671204043365103,
                51.62940619057874
              ],
              [
                10.677624748441545,
                51.6386699289042
              ],
              [
                10.701419126077763,
                51.64191223731811
              ],
              [
                10.682912387916259,
                51.660439713969026
              ],
              [
                10.670070977763379,
                51.66669273733871
              ],
              [
                10.664783338288663,
                51.68846252240354
              ],
              [
                10.672714797500737,
                51.69703148035459
              ],
              [
                10.668182535093838,
                51.70953752709396
              ],
              [
                10.641744337720258,
                51.725285882247235
              ],
              [
                10.625126042228295,
                51.75933012059329
              ],
              [
                10.591134074176551,
                51.76882545237689
              ],
              [
                10.580936483761029,
                51.779710344909304
              ],
              [
                10.584713369100111,
                51.79592188697885
              ],
              [
                10.574893467218498,
                51.81236502250654
              ],
              [
                10.576404221354132,
                51.842703765522415
              ],
              [
                10.583957992032296,
                51.85289387768042
              ],
              [
                10.602087041659892,
                51.854515031887374
              ],
              [
                10.616061517414497,
                51.87003179358252
              ],
              [
                10.631546747304736,
                51.87165294778947
              ],
              [
                10.650053485466241,
                51.889485644065985
              ],
              [
                10.648920419864517,
                51.90731834034249
              ],
              [
                10.637967452381176,
                51.91588729829354
              ],
              [
                10.61341769767714,
                51.92144554128881
              ],
              [
                10.61341769767714,
                51.93927823756532
              ],
              [
                10.622482222490937,
                51.94784719551637
              ],
              [
                10.647031977194974,
                51.953405438511645
              ],
              [
                10.641744337720258,
                51.9626691768371
              ],
              [
                10.61983840275358,
                51.96660626562542
              ],
              [
                10.605863926998975,
                51.97749115815783
              ],
              [
                10.586601811769654,
                51.98281780769497
              ],
              [
                10.560918991463893,
                52.00389281238539
              ],
              [
                10.575648844286313,
                52.011072209587624
              ],
              [
                10.605863926998975,
                52.00782990117371
              ],
              [
                10.6391005179829,
                52.01570407875035
              ],
              [
                10.655341124940957,
                52.02496781707581
              ],
              [
                10.648165042796698,
                52.04210573297791
              ],
              [
                10.701419126077763,
                52.04997991055455
              ],
              [
                10.801506587563452,
                52.04835875634759
              ],
              [
                10.858159867649691,
                52.05136947130337
              ],
              [
                10.876666605811195,
                52.059243648880006
              ],
              [
                10.943517476312957,
                52.059243648880006
              ],
              [
                10.964668034211819,
                52.05692771429864
              ],
              [
                10.972977181957802,
                52.072444475993784
              ],
              [
                10.971088739288259,
                52.08564530310756
              ],
              [
                10.941629033643416,
                52.09421426105861
              ],
              [
                10.941629033643416,
                52.10278321900966
              ],
              [
                10.980153264102057,
                52.10834146200493
              ],
              [
                11.009612969746902,
                52.119921134911756
              ],
              [
                11.017922117492883,
                52.128490092862805
              ],
              [
                11.044360314866463,
                52.13404833585808
              ],
              [
                11.045493380468187,
                52.14331207418354
              ],
              [
                11.060223233290609,
                52.152575812509
              ],
              [
                11.059090167688884,
                52.1722612564506
              ],
              [
                11.036428855654389,
                52.17133488261805
              ],
              [
                11.017922117492883,
                52.17920906019469
              ],
              [
                11.01225678948426,
                52.188472798520145
              ],
              [
                11.021699002831966,
                52.20491593404783
              ],
              [
                11.044360314866463,
                52.2148744527477
              ],
              [
                11.077596905850388,
                52.21881154153602
              ],
              [
                11.085906053596371,
                52.22900165369403
              ],
              [
                11.073064643443491,
                52.243128854640354
              ],
              [
                11.059090167688884,
                52.24058132660085
              ],
              [
                11.051914085544627,
                52.26721457428654
              ],
              [
                11.028875084976224,
                52.27022528924232
              ],
              [
                11.01225678948426,
                52.291300293932736
              ],
              [
                11.039072675391747,
                52.301490406090736
              ],
              [
                10.996016182526205,
                52.34201926126462
              ],
              [
                11.006969150009546,
                52.3457247565948
              ],
              [
                11.037184232722204,
                52.34502997622039
              ],
              [
                11.069287758104407,
                52.358230803334166
              ],
              [
                11.06664393836705,
                52.3730527846549
              ],
              [
                11.04927026580727,
                52.38717998560123
              ],
              [
                11.036428855654389,
                52.38555883139427
              ],
              [
                10.989595477449765,
                52.420529443572875
              ],
              [
                10.96202421447446,
                52.4346566445192
              ],
              [
                10.95635888646584,
                52.44461516321907
              ],
              [
                10.933697574431342,
                52.46105829874676
              ],
              [
                10.934452951499159,
                52.471943191279166
              ],
              [
                10.947294361652041,
                52.49463935017654
              ],
              [
                10.97562100169516,
                52.50158715392064
              ],
              [
                11.008857592679085,
                52.49695528475791
              ],
              [
                10.954470443796296,
                52.53980007451315
              ],
              [
                10.937096771236517,
                52.56782288294767
              ],
              [
                10.940118279507782,
                52.588666294179944
              ],
              [
                10.97562100169516,
                52.60673058391459
              ],
              [
                10.976754067296884,
                52.62386849981669
              ],
              [
                10.964668034211819,
                52.62618443439805
              ],
              [
                10.930676066160077,
                52.61136245307732
              ],
              [
                10.91707927893938,
                52.61668910261446
              ],
              [
                10.902349426116956,
                52.63544817272351
              ],
              [
                10.834365490013472,
                52.69936796716917
              ],
              [
                10.82341252253013,
                52.71812703727822
              ],
              [
                10.798485079292186,
                52.71326357465736
              ],
              [
                10.792064374215746,
                52.747539406461556
              ],
              [
                10.75656165202837,
                52.78274161209829
              ],
              [
                10.759205471765728,
                52.79594243921207
              ],
              [
                10.75656165202837,
                52.819333378483854
              ],
              [
                10.772046881918609,
                52.83415535980459
              ],
              [
                10.800373521961728,
                52.85036690187414
              ],
              [
                10.834365490013472,
                52.84735618691837
              ],
              [
                10.841919260691636,
                52.8519880560811
              ],
              [
                10.866469015395673,
                52.85592514486942
              ],
              [
                10.890263393031894,
                52.84573503271141
              ],
              [
                10.894795655438791,
                52.85592514486942
              ],
              [
                10.940118279507782,
                52.85360921028805
              ],
              [
                10.971088739288259,
                52.87769492993424
              ],
              [
                10.990350854517581,
                52.88857982246665
              ],
              [
                10.989595477449765,
                52.90015949537348
              ],
              [
                10.99941537933138,
                52.91104438790589
              ],
              [
                11.040961118061288,
                52.91359191594539
              ],
              [
                11.060978610358426,
                52.90965482715707
              ],
              [
                11.098747463749252,
                52.91266554211285
              ],
              [
                11.093082135740627,
                52.89946471499907
              ],
              [
                11.135383251538354,
                52.89784356079211
              ],
              [
                11.160310694776298,
                52.90571773836875
              ],
              [
                11.22074086020162,
                52.89784356079211
              ],
              [
                11.243779860770022,
                52.87838971030865
              ],
              [
                11.267574238406244,
                52.880010864515604
              ],
              [
                11.291368616042462,
                52.88788504209224
              ],
              [
                11.295145501381546,
                52.874452621520334
              ],
              [
                11.350288027332152,
                52.88857982246665
              ],
              [
                11.374837782036188,
                52.90015949537348
              ],
              [
                11.40694130741839,
                52.9040965841618
              ],
              [
                11.42620342264771,
                52.91961334585694
              ],
              [
                11.470392981114976,
                52.93929878979854
              ],
              [
                11.505140326234537,
                52.94068835054736
              ],
              [
                11.492298916081657,
                52.95944742065641
              ],
              [
                11.506273391836261,
                52.99997627583029
              ],
              [
                11.526290884133399,
                53.00854523378134
              ],
              [
                11.541020736955822,
                52.99997627583029
              ],
              [
                11.598051705575969,
                53.035641668383306
              ],
              [
                11.5629266719225,
                53.04189469175299
              ],
              [
                11.54555299936272,
                53.0527795842854
              ],
              [
                11.526290884133399,
                53.046758154373855
              ],
              [
                11.49796424409028,
                53.051390023536584
              ],
              [
                11.463972276038536,
                53.07478096280837
              ],
              [
                11.448487046148298,
                53.07848645813855
              ],
              [
                11.402409045011492,
                53.072465028227
              ],
              [
                11.353687224137325,
                53.054400738492355
              ],
              [
                11.332536666238463,
                53.057643046906264
              ],
              [
                11.307986911534426,
                53.07848645813855
              ],
              [
                11.284192533898207,
                53.088676570296556
              ],
              [
                11.267574238406244,
                53.103498551617285
              ],
              [
                11.265685795736701,
                53.12225762172634
              ],
              [
                11.24642368050738,
                53.13615322921453
              ],
              [
                11.210543269786097,
                53.14402740679117
              ],
              [
                11.182216629742976,
                53.13846916379589
              ],
              [
                11.172019039327454,
                53.156533453530535
              ],
              [
                11.189392711887233,
                53.165797191855994
              ],
              [
                11.195058039895857,
                53.1766820843884
              ],
              [
                11.179572810005618,
                53.18687219654641
              ],
              [
                11.161066071844115,
                53.18594582271386
              ],
              [
                11.136138628606169,
                53.19219884608355
              ],
              [
                11.13802707127571,
                53.202388958241556
              ],
              [
                11.116876513376848,
                53.20401011244851
              ],
              [
                11.090438316003269,
                53.213968631148376
              ],
              [
                11.067399315434866,
                53.23110654705047
              ],
              [
                11.026986642306682,
                53.279509579800994
              ],
              [
                11.008857592679085,
                53.281825514382355
              ],
              [
                11.008857592679085,
                53.29896343028446
              ],
              [
                10.987707034780223,
                53.333239262088654
              ],
              [
                10.95560350939802,
                53.333239262088654
              ],
              [
                10.91896772160892,
                53.34806124340938
              ],
              [
                10.885731130624993,
                53.324670304137605
              ],
              [
                10.857404490581875,
                53.31679612656096
              ],
              [
                10.836253932683011,
                53.3068376078611
              ],
              [
                10.827189407869213,
                53.31216425739824
              ],
              [
                10.79319743981747,
                53.31540656581215
              ],
              [
                10.770913816316884,
                53.326291458344556
              ],
              [
                10.763737734172626,
                53.33717635087697
              ],
              [
                10.738054913866865,
                53.34250300041411
              ],
              [
                10.727857323451342,
                53.35732498173484
              ],
              [
                10.70481832288294,
                53.3691362480998
              ],
              [
                10.681023945246718,
                53.36751509389285
              ],
              [
                10.614928451812773,
                53.36983102847421
              ],
              [
                10.594910959515635,
                53.36357800510453
              ],
              [
                10.575648844286313,
                53.35964091631621
              ],
              [
                10.55714210612481,
                53.3691362480998
              ],
              [
                10.514085613259269,
                53.37145218268117
              ],
              [
                10.469140677724186,
                53.3862741640019
              ],
              [
                10.429861070197727,
                53.39785383690872
              ],
              [
                10.36640939650114,
                53.42587664534324
              ],
              [
                10.328640543110314,
                53.42518186496883
              ],
              [
                10.30748998521145,
                53.43282444908733
              ],
              [
                10.263678115278093,
                53.4205499958061
              ],
              [
                10.239883737641872,
                53.396232682701765
              ],
              [
                10.20135950718323,
                53.39854861728313
              ],
              [
                10.17567668687747,
                53.396232682701765
              ],
              [
                10.155281506046423,
                53.40480164065281
              ],
              [
                10.138663210554459,
                53.4212447761805
              ],
              [
                10.108448127841799,
                53.42657142571764
              ],
              [
                10.096739783290642,
                53.441393407038376
              ],
              [
                10.078233045129139,
                53.453899453777744
              ],
              [
                10.05179484775556,
                53.46408956593575
              ],
              [
                10.018558256771634,
                53.42911895375715
              ],
              [
                9.996652321804955,
                53.42587664534324
              ],
              [
                9.982677846050349,
                53.41499175281082
              ],
              [
                9.963415730821028,
                53.42749779955019
              ],
              [
                9.942265172922166,
                53.4212447761805
              ],
              [
                9.916582352616404,
                53.42518186496883
              ],
              [
                9.921492303557212,
                53.43676153787565
              ],
              [
                9.899208680056624,
                53.45783654256606
              ],
              [
                9.85879600692844,
                53.433750822919876
              ],
              [
                9.836134694893945,
                53.45158351919638
              ],
              [
                9.80025428417266,
                53.46941621547289
              ],
              [
                9.802142726842202,
                53.49280715474467
              ],
              [
                9.768906135858275,
                53.505313201484036
              ],
              [
                9.77645990653644,
                53.5247670519675
              ],
              [
                9.77192764412954,
                53.54352612207656
              ],
              [
                9.723205823255375,
                53.55116870619506
              ],
              [
                9.710364413102495,
                53.544915682825376
              ],
              [
                9.68090470745765,
                53.548852771613696
              ],
              [
                9.65068962474499,
                53.567611841722744
              ],
              [
                9.616697656693248,
                53.58081266883652
              ],
              [
                9.600079361201283,
                53.58243382304348
              ],
              [
                9.573641163827705,
                53.59331871557589
              ],
              [
                9.565332016081724,
                53.60258245390135
              ],
              [
                9.541537638445504,
                53.612077785684946
              ],
              [
                9.514721752538017,
                53.64079537449386
              ],
              [
                9.5139663754702,
                53.65168026702628
              ],
              [
                9.47544214501156,
                53.69220912220016
              ],
              [
                9.420299619060952,
                53.722547865216036
              ],
              [
                9.359869453635632,
                53.78090941666642
              ],
              [
                9.353448748559192,
                53.79341546340579
              ],
              [
                9.314924518100549,
                53.83463909895408
              ],
              [
                9.27337877937064,
                53.85803003822586
              ],
              [
                9.194441875783815,
                53.86428306159554
              ],
              [
                9.123058742875154,
                53.86428306159554
              ],
              [
                9.08453451241651,
                53.86196712701418
              ],
              [
                9.021082838719924,
                53.84181849615631
              ],
              [
                9.017305953380841,
                53.836955033535446
              ],
              [
                8.965184935701501,
                53.839502561574946
              ],
              [
                8.919106934564695,
                53.83000722979135
              ],
              [
                8.892668737191116,
                53.8283860755844
              ],
              [
                8.785405193561171,
                53.83394431857967
              ],
              [
                8.727618847873208,
                53.85733525785145
              ],
              [
                8.717421257457683,
                53.86428306159554
              ],
              [
                8.70080296196572,
                53.87285201954659
              ],
              [
                8.702691404635262,
                53.87748388870932
              ]
            ],
            [
              [
                8.984447050930823,
                53.12619471051466
              ],
              [
                8.954231968218162,
                53.11901531331243
              ],
              [
                8.968961821040583,
                53.09099250487792
              ],
              [
                8.960652673294604,
                53.06621200485732
              ],
              [
                8.979914788523924,
                53.046758154373855
              ],
              [
                8.967073378371044,
                53.03656804221585
              ],
              [
                8.938369049794016,
                53.02475677585089
              ],
              [
                8.935725230056658,
                53.01387188331848
              ],
              [
                8.91570773775952,
                53.0108611683627
              ],
              [
                8.895312556928474,
                53.01317710294407
              ],
              [
                8.883604212377318,
                53.02406199547648
              ],
              [
                8.822040981350272,
                53.02105128052071
              ],
              [
                8.805422685858309,
                53.03193617305312
              ],
              [
                8.779739865552546,
                53.038883976797216
              ],
              [
                8.757833930585868,
                53.039578757171626
              ],
              [
                8.731018044678382,
                53.034946888008896
              ],
              [
                8.71175592944906,
                53.044210626334355
              ],
              [
                8.707223667042161,
                53.051390023536584
              ],
              [
                8.709112109711704,
                53.07617052355718
              ],
              [
                8.70080296196572,
                53.08242354692687
              ],
              [
                8.674364764592143,
                53.08636063571519
              ],
              [
                8.669832502185244,
                53.102803771242876
              ],
              [
                8.655102649362822,
                53.10905679461256
              ],
              [
                8.651325764023738,
                53.12225762172634
              ],
              [
                8.632063648794418,
                53.13615322921453
              ],
              [
                8.623754501048436,
                53.163481257274626
              ],
              [
                8.611668467963373,
                53.17042906101872
              ],
              [
                8.587118713259336,
                53.172744995600084
              ],
              [
                8.534620007046087,
                53.18687219654641
              ],
              [
                8.504404924333427,
                53.2007678040346
              ],
              [
                8.485142809104106,
                53.22740105172029
              ],
              [
                8.521023219825391,
                53.226474677887744
              ],
              [
                8.53008774463919,
                53.216516159187876
              ],
              [
                8.55388212227541,
                53.20794720123683
              ],
              [
                8.578809565513353,
                53.217210939562285
              ],
              [
                8.598827057810492,
                53.212579070399556
              ],
              [
                8.581453385250711,
                53.20007302366019
              ],
              [
                8.59240635273405,
                53.18455626196504
              ],
              [
                8.609024648226015,
                53.19219884608355
              ],
              [
                8.634707468531776,
                53.19613593487187
              ],
              [
                8.655102649362822,
                53.18687219654641
              ],
              [
                8.658501846167997,
                53.17737686476281
              ],
              [
                8.706468289974346,
                53.175987304014
              ],
              [
                8.728374224941025,
                53.18061917317672
              ],
              [
                8.740460258026088,
                53.165797191855994
              ],
              [
                8.770675340738748,
                53.159544168486306
              ],
              [
                8.82657324375717,
                53.163481257274626
              ],
              [
                8.842058473647409,
                53.1486592759539
              ],
              [
                8.87227355636007,
                53.13383729463316
              ],
              [
                8.911930852420436,
                53.13221614042621
              ],
              [
                8.936858295658382,
                53.15097521053526
              ],
              [
                8.95687578795552,
                53.14703812174694
              ],
              [
                8.984447050930823,
                53.12619471051466
              ]
            ]
          ]
        ]
      },
      "properties": {
        "name": "Niedersachsen",
        "nameEN": "Lower Saxony",
        "short": "NI"
      },
      "id": "03"
    }
  ]
}
